ORBCOMM FM115 [+]       
1 41186U 15081H   23276.66791027  .00001380  00000+0  32055-3 0  9992
2 41186  46.9983 113.9446 0000243 115.6361 244.4550 14.59944816416737
ORBCOMM FM108 [+]       
1 41187U 15081J   23276.85463244  .00001831  00000+0  45015-3 0  9992
2 41187  47.0032 160.5007 0002651 337.9538  22.1232 14.55954521416048
ORBCOMM FM117 [+]       
1 41188U 15081K   23276.75134767  .00001756  00000+0  43353-3 0  9996
2 41188  46.9991 159.9503 0003220 347.2033  12.8769 14.55924919416073
ORBCOMM FM116 [+]       
1 41189U 15081L   23276.94720661  .00001472  00000+0  36934-3 0  9994
2 41189  47.0014 248.8367 0001249  57.0171 303.0833 14.55935341414915
